[{"OBJECT_NAME":"LIDE","OBJECT_ID":"2025-154A","EPOCH":"2026-03-09T17:40:09.364800","MEAN_MOTION":14.93720025,"ECCENTRICITY":0.00054258,"INCLINATION":97.682,"RA_OF_ASC_NODE":134.8153,"ARG_OF_PERICENTER":185.342,"MEAN_ANOMALY":174.7743,"EPHEMERIS_TYPE":0,"CLASSIFICATION_TYPE":"U","NORAD_CAT_ID":64869,"ELEMENT_SET_NO":999,"REV_AT_EPOCH":3415,"BSTAR":0.00043353011,"MEAN_MOTION_DOT":4.535e-5,"MEAN_MOTION_DDOT":0},{"OBJECT_NAME":"H-2A DEB","OBJECT_ID":"2012-025H","EPOCH":"2026-03-09T22:19:09.565248","MEAN_MOTION":14.92558474,"ECCENTRICITY":0.00070619,"INCLINATION":98.1898,"RA_OF_ASC_NODE":197.4099,"ARG_OF_PERICENTER":85.2909,"MEAN_ANOMALY":274.9115,"EPHEMERIS_TYPE":0,"CLASSIFICATION_TYPE":"U","NORAD_CAT_ID":38347,"ELEMENT_SET_NO":999,"REV_AT_EPOCH":74399,"BSTAR":0.00053506866,"MEAN_MOTION_DOT":5.443e-5,"MEAN_MOTION_DDOT":0}]
